start=new Date('2021-08-27T00:00:00.000Z').valueOf();
sats=[{"MEAN_MOTION":"15.06397299","PERIAPSIS":"546.165","CENTER_NAME":"EARTH","RA_OF_ASC_NODE":"10.7457","TIME_SYSTEM":"UTC","OBJECT_ID":"2020-019AS","REV_AT_EPOCH":"8028","BSTAR":"0.00008545100000","INCLINATION":"53.0562","OBJECT_NAME":"STARLINK-1213","COUNTRY_CODE":"US","CLASSIFICATION_TYPE":"U","TLE_LINE2":"2 45400  53.0562  10.7457 0001526 120.0023 240.1117 15.06397299 80287","REF_FRAME":"TEME","RCS_SIZE":"LARGE","APOAPSIS":"548.279","EPHEMERIS_TYPE":"0","PERIOD":"95.592","TLE_LINE1":"1 45400U 20019AS  21238.67971097  .00000991  00000-0  85451-4 0  9993","MEAN_ELEMENT_THEORY":"SGP4","LAUNCH_DATE":"2020-03-18","SEMIMAJOR_AXIS":"6925.357","MEAN_MOTION_DOT":"0.00000991","EPOCH":"2021-08-26T16:18:47.027808","OBJECT_TYPE":"PAYLOAD","DECAY_DATE":null,"ECCENTRICITY":"0.00015260","ARG_OF_PERICENTER":"120.0023","SITE":"AFETR","GP_ID":"183494861","MEAN_ANOMALY":"240.1117","FILE":"3103480","MEAN_MOTION_DDOT":"0.0000000000000","ELEMENT_SET_NO":"999","NORAD_CAT_ID":"45400"},{"RA_OF_ASC_NODE":"10.7596","MEAN_MOTION":"15.06400901","PERIAPSIS":"546.302","CENTER_NAME":"EARTH","OBJECT_NAME":"STARLINK-1256","INCLINATION":"53.0557","COUNTRY_CODE":"US","OBJECT_ID":"2020-019AT","TIME_SYSTEM":"UTC","REV_AT_EPOCH":"8035","BSTAR":"0.00006012000000","MEAN_ELEMENT_THEORY":"SGP4","TLE_LINE1":"1 45401U 20019AT  21238.67600129  .00000614  00000-0  60120-4 0  9997","LAUNCH_DATE":"2020-03-18","SEMIMAJOR_AXIS":"6925.346","REF_FRAME":"TEME","RCS_SIZE":"LARGE","CLASSIFICATION_TYPE":"U","TLE_LINE2":"2 45401  53.0557  10.7596 0001312 109.4710 250.6421 15.06400901 80350","PERIOD":"95.592","APOAPSIS":"548.119","EPHEMERIS_TYPE":"0","SITE":"AFETR","GP_ID":"183496112","MEAN_ANOMALY":"250.6421","FILE":"3103480","ECCENTRICITY":"0.00013120","ARG_OF_PERICENTER":"109.4710","NORAD_CAT_ID":"45401","ELEMENT_SET_NO":"999","MEAN_MOTION_DDOT":"0.0000000000000","EPOCH":"2021-08-26T16:13:26.511456","MEAN_MOTION_DOT":"0.00000614","DECAY_DATE":null,"OBJECT_TYPE":"PAYLOAD"},{"APOAPSIS":"548.122","EPHEMERIS_TYPE":"0","PERIOD":"95.592","TLE_LINE2":"2 45402  53.0556  10.7707 0001319 109.9490 250.1641 15.06401764 80369","CLASSIFICATION_TYPE":"U","REF_FRAME":"TEME","RCS_SIZE":"LARGE","LAUNCH_DATE":"2020-03-18","SEMIMAJOR_AXIS":"6925.343","MEAN_ELEMENT_THEORY":"SGP4","TLE_LINE1":"1 45402U 20019AU  21238.67231631  .00000704  00000-0  66150-4 0  9995","OBJECT_TYPE":"PAYLOAD","DECAY_DATE":null,"MEAN_MOTION_DOT":"0.00000704","EPOCH":"2021-08-26T16:08:08.129184","ELEMENT_SET_NO":"999","MEAN_MOTION_DDOT":"0.0000000000000","NORAD_CAT_ID":"45402","ECCENTRICITY":"0.00013190","ARG_OF_PERICENTER":"109.9490","SITE":"AFETR","GP_ID":"183495863","MEAN_ANOMALY":"250.1641","FILE":"3103480","PERIAPSIS":"546.295","CENTER_NAME":"EARTH","MEAN_MOTION":"15.06401764","RA_OF_ASC_NODE":"10.7707","REV_AT_EPOCH":"8036","BSTAR":"0.00006615000000","TIME_SYSTEM":"UTC","OBJECT_ID":"2020-019AU","COUNTRY_CODE":"US","INCLINATION":"53.0556","OBJECT_NAME":"STARLINK-1257"},{"MEAN_MOTION":"15.06396832","PERIAPSIS":"546.264","CENTER_NAME":"EARTH","RA_OF_ASC_NODE":"10.7099","TIME_SYSTEM":"UTC","OBJECT_ID":"2020-019AV","REV_AT_EPOCH":"8035","BSTAR":"0.00009703000000","INCLINATION":"53.0561","OBJECT_NAME":"STARLINK-1259","COUNTRY_CODE":"US","TLE_LINE2":"2 45403  53.0561  10.7099 0001385 116.5479 243.5652 15.06396832 80350","CLASSIFICATION_TYPE":"U","REF_FRAME":"TEME","RCS_SIZE":"LARGE","APOAPSIS":"548.182","EPHEMERIS_TYPE":"0","PERIOD":"95.592","MEAN_ELEMENT_THEORY":"SGP4","TLE_LINE1":"1 45403U 20019AV  21238.68707087  .00001164  00000-0  97030-4 0  9992","LAUNCH_DATE":"2020-03-18","SEMIMAJOR_AXIS":"6925.358","MEAN_MOTION_DOT":"0.00001164","EPOCH":"2021-08-26T16:29:22.923168","OBJECT_TYPE":"PAYLOAD","DECAY_DATE":null,"ECCENTRICITY":"0.00013850","ARG_OF_PERICENTER":"116.5479","GP_ID":"183495111","MEAN_ANOMALY":"243.5652","SITE":"AFETR","FILE":"3103480","MEAN_MOTION_DDOT":"0.0000000000000","ELEMENT_SET_NO":"999","NORAD_CAT_ID":"45403"},{"RCS_SIZE":"LARGE","REF_FRAME":"TEME","CLASSIFICATION_TYPE":"U","TLE_LINE2":"2 45404  53.0568  10.9615 0001300 112.7946 247.3180 15.06392648 80256","PERIOD":"95.593","EPHEMERIS_TYPE":"0","APOAPSIS":"548.136","MEAN_ELEMENT_THEORY":"SGP4","TLE_LINE1":"1 45404U 20019AW  21238.63177601 -.00000851  00000-0 -38239-4 0  9991","SEMIMAJOR_AXIS":"6925.371","LAUNCH_DATE":"2020-03-18","EPOCH":"2021-08-26T15:09:45.447264","MEAN_MOTION_DOT":"-0.00000851","DECAY_DATE":null,"OBJECT_TYPE":"PAYLOAD","FILE":"3103480","MEAN_ANOMALY":"247.3180","GP_ID":"183495361","SITE":"AFETR","ARG_OF_PERICENTER":"112.7946","ECCENTRICITY":"0.00013000","NORAD_CAT_ID":"45404","MEAN_MOTION_DDOT":"0.0000000000000","ELEMENT_SET_NO":"999","MEAN_MOTION":"15.06392648","CENTER_NAME":"EARTH","PERIAPSIS":"546.336","RA_OF_ASC_NODE":"10.9615","OBJECT_ID":"2020-019AW","TIME_SYSTEM":"UTC","BSTAR":"-0.00003823900000","REV_AT_EPOCH":"8025","OBJECT_NAME":"STARLINK-1260","INCLINATION":"53.0568","COUNTRY_CODE":"US"},{"CLASSIFICATION_TYPE":"U","TLE_LINE2":"2 45405  53.0565  10.7285 0001307 117.5019 242.6103 15.06402832 80267","RCS_SIZE":"LARGE","REF_FRAME":"TEME","EPHEMERIS_TYPE":"0","APOAPSIS":"548.110","PERIOD":"95.592","MEAN_ELEMENT_THEORY":"SGP4","TLE_LINE1":"1 45405U 20019AX  21238.68337612  .00001312  00000-0  10695-3 0  9993","SEMIMAJOR_AXIS":"6925.340","LAUNCH_DATE":"2020-03-18","MEAN_MOTION_DOT":"0.00001312","EPOCH":"2021-08-26T16:24:03.696768","OBJECT_TYPE":"PAYLOAD","DECAY_DATE":null,"ARG_OF_PERICENTER":"117.5019","ECCENTRICITY":"0.00013070","FILE":"3103480","MEAN_ANOMALY":"242.6103","GP_ID":"183495613","SITE":"AFETR","MEAN_MOTION_DDOT":"0.0000000000000","ELEMENT_SET_NO":"999","NORAD_CAT_ID":"45405","MEAN_MOTION":"15.06402832","CENTER_NAME":"EARTH","PERIAPSIS":"546.300","RA_OF_ASC_NODE":"10.7285","TIME_SYSTEM":"UTC","OBJECT_ID":"2020-019AX","BSTAR":"0.00010695000000","REV_AT_EPOCH":"8026","INCLINATION":"53.0565","OBJECT_NAME":"STARLINK-1263","COUNTRY_CODE":"US"},{"CENTER_NAME":"EARTH","PERIAPSIS":"546.323","MEAN_MOTION":"15.06391807","RA_OF_ASC_NODE":"10.6871","BSTAR":"0.00009026300000","REV_AT_EPOCH":"8026","OBJECT_ID":"2020-019AY","TIME_SYSTEM":"UTC","COUNTRY_CODE":"US","OBJECT_NAME":"STARLINK-1265","INCLINATION":"53.0553","PERIOD":"95.593","EPHEMERIS_TYPE":"0","APOAPSIS":"548.154","RCS_SIZE":"LARGE","REF_FRAME":"TEME","TLE_LINE2":"2 45406  53.0553  10.6871 0001322 119.8876 240.2244 15.06391807 80267","CLASSIFICATION_TYPE":"U","SEMIMAJOR_AXIS":"6925.374","LAUNCH_DATE":"2020-03-18","TLE_LINE1":"1 45406U 20019AY  21238.69075477  .00001063  00000-0  90263-4 0  9996","MEAN_ELEMENT_THEORY":"SGP4","DECAY_DATE":null,"OBJECT_TYPE":"PAYLOAD","EPOCH":"2021-08-26T16:34:41.212128","MEAN_MOTION_DOT":"0.00001063","NORAD_CAT_ID":"45406","MEAN_MOTION_DDOT":"0.0000000000000","ELEMENT_SET_NO":"999","FILE":"3103480","MEAN_ANOMALY":"240.2244","GP_ID":"183496363","SITE":"AFETR","ARG_OF_PERICENTER":"119.8876","ECCENTRICITY":"0.00013220"},{"MEAN_MOTION_DDOT":"0.0000000000000","ELEMENT_SET_NO":"999","NORAD_CAT_ID":"45407","ECCENTRICITY":"0.00013590","ARG_OF_PERICENTER":"128.1720","GP_ID":"183494612","SITE":"AFETR","MEAN_ANOMALY":"231.9392","FILE":"3103480","OBJECT_TYPE":"PAYLOAD","DECAY_DATE":null,"MEAN_MOTION_DOT":"0.00001104","EPOCH":"2021-08-26T15:20:23.057664","LAUNCH_DATE":"2020-03-18","SEMIMAJOR_AXIS":"6925.360","TLE_LINE1":"1 45407U 20019AZ  21238.63915576  .00001104  00000-0  92982-4 0  9990","MEAN_ELEMENT_THEORY":"SGP4","APOAPSIS":"548.166","EPHEMERIS_TYPE":"0","PERIOD":"95.592","CLASSIFICATION_TYPE":"U","TLE_LINE2":"2 45407  53.0563  10.9200 0001359 128.1720 231.9392 15.06396236 80250","REF_FRAME":"TEME","RCS_SIZE":"LARGE","COUNTRY_CODE":"US","INCLINATION":"53.0563","OBJECT_NAME":"STARLINK-1275","REV_AT_EPOCH":"8025","BSTAR":"0.00009298200000","TIME_SYSTEM":"UTC","OBJECT_ID":"2020-019AZ","RA_OF_ASC_NODE":"10.9200","PERIAPSIS":"546.284","CENTER_NAME":"EARTH","MEAN_MOTION":"15.06396236"},{"DECAY_DATE":null,"OBJECT_TYPE":"PAYLOAD","EPOCH":"2021-08-26T17:13:10.001568","MEAN_MOTION_DOT":"-0.00000773","NORAD_CAT_ID":"45408","MEAN_MOTION_DDOT":"0.0000000000000","ELEMENT_SET_NO":"999","FILE":"3103480","GP_ID":"183494862","SITE":"AFETR","MEAN_ANOMALY":"254.7597","ARG_OF_PERICENTER":"105.3592","ECCENTRICITY":"0.00018050","PERIOD":"95.592","EPHEMERIS_TYPE":"0","APOAPSIS":"548.478","RCS_SIZE":"LARGE","REF_FRAME":"TEME","CLASSIFICATION_TYPE":"U","TLE_LINE2":"2 45408  53.0566  40.5777 0001805 105.3592 254.7597 15.06395444 79856","SEMIMAJOR_AXIS":"6925.363","LAUNCH_DATE":"2020-03-18","TLE_LINE1":"1 45408U 20019BA  21238.71747687 -.00000773  00000-0 -32978-4 0  9998","MEAN_ELEMENT_THEORY":"SGP4","BSTAR":"-0.00003297800000","REV_AT_EPOCH":"7985","OBJECT_ID":"2020-019BA","TIME_SYSTEM":"UTC","COUNTRY_CODE":"US","OBJECT_NAME":"STARLINK-1278","INCLINATION":"53.0566","CENTER_NAME":"EARTH","PERIAPSIS":"545.977","MEAN_MOTION":"15.06395444","RA_OF_ASC_NODE":"40.5777"},{"CENTER_NAME":"EARTH","PERIAPSIS":"546.276","MEAN_MOTION":"15.06400704","RA_OF_ASC_NODE":"10.8904","BSTAR":"0.00008870700000","REV_AT_EPOCH":"8026","OBJECT_ID":"2020-019BB","TIME_SYSTEM":"UTC","COUNTRY_CODE":"US","OBJECT_NAME":"STARLINK-1282","INCLINATION":"53.0566","PERIOD":"95.592","EPHEMERIS_TYPE":"0","APOAPSIS":"548.146","RCS_SIZE":"LARGE","REF_FRAME":"TEME","CLASSIFICATION_TYPE":"U","TLE_LINE2":"2 45409  53.0566  10.8904 0001350 116.9911 243.1216 15.06400704 80260","SEMIMAJOR_AXIS":"6925.346","LAUNCH_DATE":"2020-03-18","TLE_LINE1":"1 45409U 20019BB  21238.64651905  .00001040  00000-0  88707-4 0  9995","MEAN_ELEMENT_THEORY":"SGP4","DECAY_DATE":null,"OBJECT_TYPE":"PAYLOAD","EPOCH":"2021-08-26T15:30:59.245920","MEAN_MOTION_DOT":"0.00001040","NORAD_CAT_ID":"45409","MEAN_MOTION_DDOT":"0.0000000000000","ELEMENT_SET_NO":"999","FILE":"3103480","GP_ID":"183496113","SITE":"AFETR","MEAN_ANOMALY":"243.1216","ARG_OF_PERICENTER":"116.9911","ECCENTRICITY":"0.00013500"}];
